{
  "type": "FeatureCollection",
  "features": [
    {
      "type": "Feature",
      "properties": {
        "norad_id": 34141,
        "name": "COSMOS 2251 DEB",
        "group": "cosmos-2251-debris",
        "lat": 53.5100980214166,
        "lon": -156.8857941290698,
        "alt_km": 689.6517445193222,
        "timestamp": "2025-12-03T15:48:03.460208+00:00",
        "meta_object_name": "COSMOS 2251 DEB",
        "meta_object_id": "1993-036LN",
        "meta_epoch": "2025-12-03T05:34:20.592192",
        "meta_mean_motion": 14.49052952,
        "meta_eccentricity": 0.00484112,
        "meta_inclination": 74.0118,
        "meta_ra_of_asc_node": 46.72,
        "meta_arg_of_pericenter": 135.9623,
        "meta_mean_anomaly": 284.9718,
        "meta_ephemeris_type": 0,
        "meta_classification_type": "U",
        "meta_norad_cat_id": 34141,
        "meta_element_set_no": 999,
        "meta_rev_at_epoch": 87556,
        "meta_bstar": 0.0022965237,
        "meta_mean_motion_dot": 8.833e-05,
        "meta_mean_motion_ddot": 0,
        "tle_line1": "1 34141U 93036LN  25337.23218278  .00008833  00000+0  22965-2 0  9994",
        "tle_line2": "2 34141  74.0118  46.7200 0048411 135.9623 284.9718 14.49052952875563"
      },
      "geometry": {
        "type": "Point",
        "coordinates": [
          -156.8857941290698,
          53.5100980214166
        ]
      }
    },
    {
      "type": "Feature",
      "properties": {
        "norad_id": 34270,
        "name": "COSMOS 2251 DEB",
        "group": "cosmos-2251-debris",
        "lat": -71.79725931043495,
        "lon": -96.55767140439751,
        "alt_km": 715.2678710236778,
        "timestamp": "2025-12-03T15:48:03.460217+00:00",
        "meta_object_name": "COSMOS 2251 DEB",
        "meta_object_id": "1993-036LQ",
        "meta_epoch": "2025-12-03T07:58:48.247968",
        "meta_mean_motion": 14.65081847,
        "meta_eccentricity": 0.00478612,
        "meta_inclination": 74.0112,
        "meta_ra_of_asc_node": 324.7543,
        "meta_arg_of_pericenter": 120.4569,
        "meta_mean_anomaly": 240.134,
        "meta_ephemeris_type": 0,
        "meta_classification_type": "U",
        "meta_norad_cat_id": 34270,
        "meta_element_set_no": 999,
        "meta_rev_at_epoch": 88958,
        "meta_bstar": 0.00072944236,
        "meta_mean_motion_dot": 3.953e-05,
        "meta_mean_motion_ddot": 0,
        "tle_line1": "1 34270U 93036LQ  25337.33250287  .00003953  00000+0  72944-3 0  9995",
        "tle_line2": "2 34270  74.0112 324.7543 0047861 120.4569 240.1340 14.65081847889580"
      },
      "geometry": {
        "type": "Point",
        "coordinates": [
          -96.55767140439751,
          -71.79725931043495
        ]
      }
    },
    {
      "type": "Feature",
      "properties": {
        "norad_id": 34271,
        "name": "COSMOS 2251 DEB",
        "group": "cosmos-2251-debris",
        "lat": 43.23908117225108,
        "lon": -127.4004401907118,
        "alt_km": 665.3443019155675,
        "timestamp": "2025-12-03T15:48:03.460226+00:00",
        "meta_object_name": "COSMOS 2251 DEB",
        "meta_object_id": "1993-036LR",
        "meta_epoch": "2025-12-03T03:13:29.779680",
        "meta_mean_motion": 14.70407197,
        "meta_eccentricity": 0.0019792,
        "meta_inclination": 74.0207,
        "meta_ra_of_asc_node": 217.985,
        "meta_arg_of_pericenter": 273.2081,
        "meta_mean_anomaly": 239.5046,
        "meta_ephemeris_type": 0,
        "meta_classification_type": "U",
        "meta_norad_cat_id": 34271,
        "meta_element_set_no": 999,
        "meta_rev_at_epoch": 88093,
        "meta_bstar": 0.0025987006,
        "meta_mean_motion_dot": 0.00015783,
        "meta_mean_motion_ddot": 0,
        "tle_line1": "1 34271U 93036LR  25337.13437245  .00015783  00000+0  25987-2 0  9993",
        "tle_line2": "2 34271  74.0207 217.9850 0019792 273.2081 239.5046 14.70407197880939"
      },
      "geometry": {
        "type": "Point",
        "coordinates": [
          -127.4004401907118,
          43.23908117225108
        ]
      }
    },
    {
      "type": "Feature",
      "properties": {
        "norad_id": 34273,
        "name": "COSMOS 2251 DEB",
        "group": "cosmos-2251-debris",
        "lat": 13.02936979997416,
        "lon": 108.5869796685482,
        "alt_km": 698.8017786886448,
        "timestamp": "2025-12-03T15:48:03.460235+00:00",
        "meta_object_name": "COSMOS 2251 DEB",
        "meta_object_id": "1993-036LT",
        "meta_epoch": "2025-12-03T01:29:53.353248",
        "meta_mean_motion": 14.61061856,
        "meta_eccentricity": 0.00145346,
        "meta_inclination": 74.0346,
        "meta_ra_of_asc_node": 105.9272,
        "meta_arg_of_pericenter": 231.137,
        "meta_mean_anomaly": 249.1249,
        "meta_ephemeris_type": 0,
        "meta_classification_type": "U",
        "meta_norad_cat_id": 34273,
        "meta_element_set_no": 999,
        "meta_rev_at_epoch": 88480,
        "meta_bstar": 0.0015659056,
        "meta_mean_motion_dot": 7.682e-05,
        "meta_mean_motion_ddot": 0,
        "tle_line1": "1 34273U 93036LT  25337.06242307  .00007682  00000+0  15659-2 0  9994",
        "tle_line2": "2 34273  74.0346 105.9272 0014534 231.1370 249.1249 14.61061856884802"
      },
      "geometry": {
        "type": "Point",
        "coordinates": [
          108.5869796685482,
          13.02936979997416
        ]
      }
    },
    {
      "type": "Feature",
      "properties": {
        "norad_id": 34274,
        "name": "COSMOS 2251 DEB",
        "group": "cosmos-2251-debris",
        "lat": -18.890976546551208,
        "lon": 80.42762223830472,
        "alt_km": 687.0076296871694,
        "timestamp": "2025-12-03T15:48:03.460244+00:00",
        "meta_object_name": "COSMOS 2251 DEB",
        "meta_object_id": "1993-036LU",
        "meta_epoch": "2025-12-03T07:59:00.237696",
        "meta_mean_motion": 14.64574589,
        "meta_eccentricity": 0.00225978,
        "meta_inclination": 74.0043,
        "meta_ra_of_asc_node": 86.688,
        "meta_arg_of_pericenter": 237.0487,
        "meta_mean_anomaly": 186.4234,
        "meta_ephemeris_type": 0,
        "meta_classification_type": "U",
        "meta_norad_cat_id": 34274,
        "meta_element_set_no": 999,
        "meta_rev_at_epoch": 88538,
        "meta_bstar": 0.0018658251,
        "meta_mean_motion_dot": 9.925e-05,
        "meta_mean_motion_ddot": 0,
        "tle_line1": "1 34274U 93036LU  25337.33264164  .00009925  00000+0  18658-2 0  9994",
        "tle_line2": "2 34274  74.0043  86.6880 0022597 237.0487 186.4234 14.64574589885385"
      },
      "geometry": {
        "type": "Point",
        "coordinates": [
          80.42762223830472,
          -18.890976546551208
        ]
      }
    },
    {
      "type": "Feature",
      "properties": {
        "norad_id": 34276,
        "name": "COSMOS 2251 DEB",
        "group": "cosmos-2251-debris",
        "lat": 16.187873037360074,
        "lon": -82.18600466346933,
        "alt_km": 701.8411135128381,
        "timestamp": "2025-12-03T15:48:03.460253+00:00",
        "meta_object_name": "COSMOS 2251 DEB",
        "meta_object_id": "1993-036LW",
        "meta_epoch": "2025-12-02T18:13:28.921728",
        "meta_mean_motion": 14.571029,
        "meta_eccentricity": 0.00228161,
        "meta_inclination": 74.0225,
        "meta_ra_of_asc_node": 104.2932,
        "meta_arg_of_pericenter": 251.6147,
        "meta_mean_anomaly": 237.7712,
        "meta_ephemeris_type": 0,
        "meta_classification_type": "U",
        "meta_norad_cat_id": 34276,
        "meta_element_set_no": 999,
        "meta_rev_at_epoch": 88447,
        "meta_bstar": 0.0011955776,
        "meta_mean_motion_dot": 5.381e-05,
        "meta_mean_motion_ddot": 0,
        "tle_line1": "1 34276U 93036LW  25336.75936252  .00005381  00000+0  11956-2 0  9991",
        "tle_line2": "2 34276  74.0225 104.2932 0022816 251.6147 237.7712 14.57102900884479"
      },
      "geometry": {
        "type": "Point",
        "coordinates": [
          -82.18600466346933,
          16.187873037360074
        ]
      }
    },
    {
      "type": "Feature",
      "properties": {
        "norad_id": 34297,
        "name": "COSMOS 2251 DEB",
        "group": "cosmos-2251-debris",
        "lat": 50.10225910696296,
        "lon": 100.90349251098795,
        "alt_km": 769.9193220530424,
        "timestamp": "2025-12-03T15:48:03.460261+00:00",
        "meta_object_name": "COSMOS 2251 DEB",
        "meta_object_id": "1993-036MT",
        "meta_epoch": "2025-12-03T07:23:07.522944",
        "meta_mean_motion": 14.36614952,
        "meta_eccentricity": 0.00168514,
        "meta_inclination": 74.0482,
        "meta_ra_of_asc_node": 301.5522,
        "meta_arg_of_pericenter": 12.3185,
        "meta_mean_anomaly": 101.7547,
        "meta_ephemeris_type": 0,
        "meta_classification_type": "U",
        "meta_norad_cat_id": 34297,
        "meta_element_set_no": 999,
        "meta_rev_at_epoch": 87929,
        "meta_bstar": 0.00022119167,
        "meta_mean_motion_dot": 6.26e-06,
        "meta_mean_motion_ddot": 0,
        "tle_line1": "1 34297U 93036MT  25337.30772596  .00000626  00000+0  22119-3 0  9996",
        "tle_line2": "2 34297  74.0482 301.5522 0016851  12.3185 101.7547 14.36614952879292"
      },
      "geometry": {
        "type": "Point",
        "coordinates": [
          100.90349251098795,
          50.10225910696296
        ]
      }
    }
  ]
}